start=new Date('2023-04-05T00:00:00.000Z').valueOf();
sats=[{"OBJECT_ID":"2023-026E","EPOCH":"2023-04-04T22:00:00.999936","CENTER_NAME":"EARTH","ECCENTRICITY":"0.00021690","MEAN_MOTION_DDOT":"0.0000000000000","SEMIMAJOR_AXIS":"6733.153","NORAD_CAT_ID":"55699","COUNTRY_CODE":"US","ELEMENT_SET_NO":"999","OBJECT_TYPE":"PAYLOAD","SITE":"AFETR","REF_FRAME":"TEME","RCS_SIZE":"LARGE","LAUNCH_DATE":"2023-02-27","TLE_LINE1":"1 55699U 23026E   23094.91667824  .00118141  00000-0  89153-3 0  9993","PERIOD":"91.641","DECAY_DATE":null,"REV_AT_EPOCH":"130","EPHEMERIS_TYPE":"0","INCLINATION":"43.0028","CLASSIFICATION_TYPE":"U","TLE_LINE2":"2 55699  43.0028  68.3166 0002169 241.4995  37.2702 15.71357456  1304","MEAN_ELEMENT_THEORY":"SGP4","BSTAR":"0.00089153000000","TIME_SYSTEM":"UTC","GP_ID":"229499725","RA_OF_ASC_NODE":"68.3166","MEAN_MOTION_DOT":"0.00118141","FILE":"3880211","MEAN_ANOMALY":"37.2702","ARG_OF_PERICENTER":"241.4995","MEAN_MOTION":"15.71357456","OBJECT_NAME":"STARLINK-30055","PERIAPSIS":"353.558","APOAPSIS":"356.479"},{"OBJECT_NAME":"STARLINK-30064","PERIAPSIS":"353.793","APOAPSIS":"357.008","MEAN_MOTION":"15.71223828","FILE":"3880211","MEAN_ANOMALY":"53.4441","ARG_OF_PERICENTER":"214.7862","RA_OF_ASC_NODE":"68.3470","MEAN_MOTION_DOT":"0.00323224","BSTAR":"0.00238700000000","TIME_SYSTEM":"UTC","GP_ID":"229499473","CLASSIFICATION_TYPE":"U","INCLINATION":"42.9999","MEAN_ELEMENT_THEORY":"SGP4","TLE_LINE2":"2 55700  42.9999  68.3470 0002387 214.7862  53.4441 15.71223828  1303","EPHEMERIS_TYPE":"0","REV_AT_EPOCH":"130","DECAY_DATE":null,"TLE_LINE1":"1 55700U 23026F   23094.91667824  .00323224  00000-0  23870-2 0  9999","PERIOD":"91.648","REF_FRAME":"TEME","RCS_SIZE":"LARGE","LAUNCH_DATE":"2023-02-27","ELEMENT_SET_NO":"999","OBJECT_TYPE":"PAYLOAD","SITE":"AFETR","COUNTRY_CODE":"US","NORAD_CAT_ID":"55700","EPOCH":"2023-04-04T22:00:00.999936","CENTER_NAME":"EARTH","ECCENTRICITY":"0.00023870","MEAN_MOTION_DDOT":"0.0000000000000","SEMIMAJOR_AXIS":"6733.535","OBJECT_ID":"2023-026F"},{"TLE_LINE2":"2 55701  43.0028  68.3037 0001221 255.3222  27.1862 15.71433108  1304","MEAN_ELEMENT_THEORY":"SGP4","INCLINATION":"43.0028","CLASSIFICATION_TYPE":"U","TIME_SYSTEM":"UTC","GP_ID":"229498724","BSTAR":"-0.00084184000000","DECAY_DATE":null,"EPHEMERIS_TYPE":"0","REV_AT_EPOCH":"130","MEAN_MOTION":"15.71433108","APOAPSIS":"355.624","OBJECT_NAME":"STARLINK-30065","PERIAPSIS":"353.980","MEAN_MOTION_DOT":"-0.00109756","RA_OF_ASC_NODE":"68.3037","MEAN_ANOMALY":"27.1862","ARG_OF_PERICENTER":"255.3222","FILE":"3880211","SEMIMAJOR_AXIS":"6732.937","MEAN_MOTION_DDOT":"0.0000000000000","ECCENTRICITY":"0.00012210","EPOCH":"2023-04-04T22:00:00.999936","CENTER_NAME":"EARTH","NORAD_CAT_ID":"55701","OBJECT_ID":"2023-026G","LAUNCH_DATE":"2023-02-27","RCS_SIZE":"LARGE","REF_FRAME":"TEME","PERIOD":"91.636","TLE_LINE1":"1 55701U 23026G   23094.91667824 -.00109756  00000-0 -84184-3 0  9990","COUNTRY_CODE":"US","SITE":"AFETR","OBJECT_TYPE":"PAYLOAD","ELEMENT_SET_NO":"999"},{"MEAN_ANOMALY":"273.8249","ARG_OF_PERICENTER":"252.3006","FILE":"3880211","RA_OF_ASC_NODE":"68.5929","MEAN_MOTION_DOT":"-0.00694698","APOAPSIS":"389.081","PERIAPSIS":"387.260","OBJECT_NAME":"STARLINK-30042","MEAN_MOTION":"15.59823163","EPHEMERIS_TYPE":"0","REV_AT_EPOCH":"130","DECAY_DATE":null,"TIME_SYSTEM":"UTC","GP_ID":"229498974","BSTAR":"-0.00916810000000","TLE_LINE2":"2 55702  42.9981  68.5929 0001346 252.3006 273.8249 15.59823163  1307","MEAN_ELEMENT_THEORY":"SGP4","INCLINATION":"42.9981","CLASSIFICATION_TYPE":"U","SITE":"AFETR","ELEMENT_SET_NO":"999","OBJECT_TYPE":"PAYLOAD","COUNTRY_CODE":"US","TLE_LINE1":"1 55702U 23026H   23094.91667824 -.00694698  00000-0 -91681-2 0  9994","PERIOD":"92.318","LAUNCH_DATE":"2023-02-27","REF_FRAME":"TEME","RCS_SIZE":"LARGE","OBJECT_ID":"2023-026H","NORAD_CAT_ID":"55702","MEAN_MOTION_DDOT":"0.0000000000000","SEMIMAJOR_AXIS":"6766.305","EPOCH":"2023-04-04T22:00:00.999936","CENTER_NAME":"EARTH","ECCENTRICITY":"0.00013460"},{"DECAY_DATE":null,"EPHEMERIS_TYPE":"0","REV_AT_EPOCH":"130","INCLINATION":"43.0001","CLASSIFICATION_TYPE":"U","TLE_LINE2":"2 55703  43.0001  68.4108 0003922 162.6608  77.3148 15.69465564  1307","MEAN_ELEMENT_THEORY":"SGP4","BSTAR":"0.00149670000000","GP_ID":"229499225","TIME_SYSTEM":"UTC","MEAN_MOTION_DOT":"0.00185045","RA_OF_ASC_NODE":"68.4108","FILE":"3880211","ARG_OF_PERICENTER":"162.6608","MEAN_ANOMALY":"77.3148","MEAN_MOTION":"15.69465564","PERIAPSIS":"357.785","OBJECT_NAME":"STARLINK-30044","APOAPSIS":"363.071","OBJECT_ID":"2023-026J","ECCENTRICITY":"0.00039220","CENTER_NAME":"EARTH","EPOCH":"2023-04-04T22:00:00.999936","SEMIMAJOR_AXIS":"6738.563","MEAN_MOTION_DDOT":"0.0000000000000","NORAD_CAT_ID":"55703","COUNTRY_CODE":"US","OBJECT_TYPE":"PAYLOAD","ELEMENT_SET_NO":"999","SITE":"AFETR","RCS_SIZE":"LARGE","REF_FRAME":"TEME","LAUNCH_DATE":"2023-02-27","PERIOD":"91.751","TLE_LINE1":"1 55703U 23026J   23094.91667824  .00185045  00000-0  14967-2 0  9996"},{"OBJECT_ID":"2023-026K","NORAD_CAT_ID":"55704","ECCENTRICITY":"0.00013130","EPOCH":"2023-04-04T22:00:00.999936","CENTER_NAME":"EARTH","SEMIMAJOR_AXIS":"6766.537","MEAN_MOTION_DDOT":"0.0000000000000","OBJECT_TYPE":"PAYLOAD","ELEMENT_SET_NO":"999","SITE":"AFETR","COUNTRY_CODE":"US","PERIOD":"92.323","TLE_LINE1":"1 55704U 23026K   23094.91667824 -.00694326  00000-0 -91912-2 0  9991","RCS_SIZE":"LARGE","REF_FRAME":"TEME","LAUNCH_DATE":"2023-02-27","EPHEMERIS_TYPE":"0","REV_AT_EPOCH":"130","DECAY_DATE":null,"BSTAR":"-0.00919120000000","GP_ID":"229499974","TIME_SYSTEM":"UTC","CLASSIFICATION_TYPE":"U","INCLINATION":"43.0026","TLE_LINE2":"2 55704  43.0026  68.5828 0001313 253.3775 281.5292 15.59743018  1301","MEAN_ELEMENT_THEORY":"SGP4","FILE":"3880211","MEAN_ANOMALY":"281.5292","ARG_OF_PERICENTER":"253.3775","MEAN_MOTION_DOT":"-0.00694326","RA_OF_ASC_NODE":"68.5828","OBJECT_NAME":"STARLINK-30051","PERIAPSIS":"387.514","APOAPSIS":"389.291","MEAN_MOTION":"15.59743018"},{"INCLINATION":"42.9984","CLASSIFICATION_TYPE":"U","MEAN_ELEMENT_THEORY":"SGP4","TLE_LINE2":"2 55705  42.9984  68.3002 0001318 250.8016  35.1052 15.71394533  1305","BSTAR":"-0.00078566000000","TIME_SYSTEM":"UTC","GP_ID":"229498224","DECAY_DATE":null,"EPHEMERIS_TYPE":"0","REV_AT_EPOCH":"130","MEAN_MOTION":"15.71394533","OBJECT_NAME":"STARLINK-30057","PERIAPSIS":"354.025","APOAPSIS":"355.800","MEAN_MOTION_DOT":"-0.00102387","RA_OF_ASC_NODE":"68.3002","FILE":"3880211","MEAN_ANOMALY":"35.1052","ARG_OF_PERICENTER":"250.8016","ECCENTRICITY":"0.00013180","EPOCH":"2023-04-04T22:00:00.999936","CENTER_NAME":"EARTH","SEMIMAJOR_AXIS":"6733.048","MEAN_MOTION_DDOT":"0.0000000000000","NORAD_CAT_ID":"55705","OBJECT_ID":"2023-026L","RCS_SIZE":"LARGE","REF_FRAME":"TEME","LAUNCH_DATE":"2023-02-27","PERIOD":"91.638","TLE_LINE1":"1 55705U 23026L   23094.91667824 -.00102387  00000-0 -78566-3 0  9994","COUNTRY_CODE":"US","OBJECT_TYPE":"PAYLOAD","ELEMENT_SET_NO":"999","SITE":"AFETR"},{"APOAPSIS":"363.238","OBJECT_NAME":"STARLINK-30054","PERIAPSIS":"356.154","MEAN_MOTION":"15.69721311","ARG_OF_PERICENTER":"168.8114","MEAN_ANOMALY":"93.2383","FILE":"3880211","RA_OF_ASC_NODE":"68.3563","MEAN_MOTION_DOT":"0.00183301","TIME_SYSTEM":"UTC","GP_ID":"229498474","BSTAR":"0.00146690000000","TLE_LINE2":"2 55706  43.0000  68.3563 0005257 168.8114  93.2383 15.69721311  1309","MEAN_ELEMENT_THEORY":"SGP4","CLASSIFICATION_TYPE":"U","INCLINATION":"43.0000","REV_AT_EPOCH":"130","EPHEMERIS_TYPE":"0","DECAY_DATE":null,"TLE_LINE1":"1 55706U 23026M   23094.91667824  .00183301  00000-0  14669-2 0  9991","PERIOD":"91.736","LAUNCH_DATE":"2023-02-27","REF_FRAME":"TEME","RCS_SIZE":"LARGE","SITE":"AFETR","ELEMENT_SET_NO":"999","OBJECT_TYPE":"PAYLOAD","COUNTRY_CODE":"US","NORAD_CAT_ID":"55706","MEAN_MOTION_DDOT":"0.0000000000000","SEMIMAJOR_AXIS":"6737.831","EPOCH":"2023-04-04T22:00:00.999936","CENTER_NAME":"EARTH","ECCENTRICITY":"0.00052570","OBJECT_ID":"2023-026M"},{"LAUNCH_DATE":"2023-02-27","REF_FRAME":"TEME","RCS_SIZE":"LARGE","TLE_LINE1":"1 55707U 23026N   23094.91667824 -.00076763  00000-0 -58521-3 0  9993","PERIOD":"91.636","COUNTRY_CODE":"US","SITE":"AFETR","ELEMENT_SET_NO":"999","OBJECT_TYPE":"PAYLOAD","MEAN_MOTION_DDOT":"0.0000000000000","SEMIMAJOR_AXIS":"6732.913","CENTER_NAME":"EARTH","EPOCH":"2023-04-04T22:00:00.999936","ECCENTRICITY":"0.00011390","NORAD_CAT_ID":"55707","OBJECT_ID":"2023-026N","MEAN_MOTION":"15.71441784","APOAPSIS":"355.544","OBJECT_NAME":"STARLINK-30060","PERIAPSIS":"354.011","RA_OF_ASC_NODE":"68.3080","MEAN_MOTION_DOT":"-0.00076763","MEAN_ANOMALY":"28.6716","ARG_OF_PERICENTER":"255.5488","FILE":"3880211","TLE_LINE2":"2 55707  43.0010  68.3080 0001139 255.5488  28.6716 15.71441784  1306","MEAN_ELEMENT_THEORY":"SGP4","INCLINATION":"43.0010","CLASSIFICATION_TYPE":"U","TIME_SYSTEM":"UTC","GP_ID":"229499726","BSTAR":"-0.00058521000000","DECAY_DATE":null,"EPHEMERIS_TYPE":"0","REV_AT_EPOCH":"130"},{"GP_ID":"229499474","TIME_SYSTEM":"UTC","BSTAR":"-0.00945450000000","TLE_LINE2":"2 55708  43.0049  68.3495 0001451 255.9570  14.5468 15.58654087  1307","MEAN_ELEMENT_THEORY":"SGP4","CLASSIFICATION_TYPE":"U","INCLINATION":"43.0049","REV_AT_EPOCH":"130","EPHEMERIS_TYPE":"0","DECAY_DATE":null,"APOAPSIS":"392.536","PERIAPSIS":"390.571","OBJECT_NAME":"STARLINK-30058","MEAN_MOTION":"15.58654087","ARG_OF_PERICENTER":"255.9570","MEAN_ANOMALY":"14.5468","FILE":"3880211","MEAN_MOTION_DOT":"-0.00685785","RA_OF_ASC_NODE":"68.3495","NORAD_CAT_ID":"55708","SEMIMAJOR_AXIS":"6769.688","MEAN_MOTION_DDOT":"0.0000000000000","ECCENTRICITY":"0.00014510","EPOCH":"2023-04-04T22:00:00.999936","CENTER_NAME":"EARTH","OBJECT_ID":"2023-026P","PERIOD":"92.387","TLE_LINE1":"1 55708U 23026P   23094.91667824 -.00685785  00000-0 -94545-2 0  9999","LAUNCH_DATE":"2023-02-27","RCS_SIZE":"LARGE","REF_FRAME":"TEME","SITE":"AFETR","OBJECT_TYPE":"PAYLOAD","ELEMENT_SET_NO":"999","COUNTRY_CODE":"US"}];
